[{"OBJECT_NAME":"VSP RF C1","OBJECT_ID":"2024-043AQ","EPOCH":"2026-03-09T21:56:05.358624","MEAN_MOTION":15.29409663,"ECCENTRICITY":0.00093965,"INCLINATION":97.5441,"RA_OF_ASC_NODE":205.1792,"ARG_OF_PERICENTER":219.6172,"MEAN_ANOMALY":140.4382,"EPHEMERIS_TYPE":0,"CLASSIFICATION_TYPE":"U","NORAD_CAT_ID":59136,"ELEMENT_SET_NO":999,"REV_AT_EPOCH":11190,"BSTAR":0.00026222052,"MEAN_MOTION_DOT":7.409e-5,"MEAN_MOTION_DDOT":0},{"OBJECT_NAME":"STARLINK-34321","OBJECT_ID":"2025-120M","EPOCH":"2026-03-09T10:56:32.298432","MEAN_MOTION":15.30199823,"ECCENTRICITY":0.00011721,"INCLINATION":53.1592,"RA_OF_ASC_NODE":117.5427,"ARG_OF_PERICENTER":90.9956,"MEAN_ANOMALY":269.1179,"EPHEMERIS_TYPE":0,"CLASSIFICATION_TYPE":"U","NORAD_CAT_ID":64267,"ELEMENT_SET_NO":999,"REV_AT_EPOCH":4388,"BSTAR":0.00049717488,"MEAN_MOTION_DOT":0.00014394,"MEAN_MOTION_DDOT":0}]
